CCSDS_OMM_VERS = 2.0
CREATION_DATE  = 
ORIGINATOR     = 

OBJECT_NAME    = UNKNOWN
OBJECT_ID      = 
CENTER_NAME    = EARTH
REF_FRAME      = TEME
TIME_SYSTEM    = UTC
MEAN_ELEMENT_THEORY = SGP/SGP4

EPOCH          = 2025-12-03T18:04:58.934496
MEAN_MOTION    = 14.21440933
ECCENTRICITY   = .0222841
INCLINATION    = 97.9859
RA_OF_ASC_NODE = 342.0938
ARG_OF_PERICENTER = 330.8053
MEAN_ANOMALY   = 28.0819

EPHEMERIS_TYPE = 0
CLASSIFICATION_TYPE = U
NORAD_CAT_ID   = 85246
ELEMENT_SET_NO = 999
REV_AT_EPOCH   = 62179
BSTAR          = .11883E-2
MEAN_MOTION_DOT = .3301E-4
MEAN_MOTION_DDOT = 0

CCSDS_OMM_VERS = 2.0
CREATION_DATE  = 
ORIGINATOR     = 

OBJECT_NAME    = UNKNOWN
OBJECT_ID      = 
CENTER_NAME    = EARTH
REF_FRAME      = TEME
TIME_SYSTEM    = UTC
MEAN_ELEMENT_THEORY = SGP/SGP4

EPOCH          = 2025-12-02T22:02:14.079264
MEAN_MOTION    = 13.99927178
ECCENTRICITY   = .0050871
INCLINATION    = 100.4275
RA_OF_ASC_NODE = 11.6439
ARG_OF_PERICENTER = 262.7755
MEAN_ANOMALY   = 221.3745

EPHEMERIS_TYPE = 0
CLASSIFICATION_TYPE = U
NORAD_CAT_ID   = 85373
ELEMENT_SET_NO = 999
REV_AT_EPOCH   = 61075
BSTAR          = .20761E-2
MEAN_MOTION_DOT = .303E-4
MEAN_MOTION_DDOT = 0

CCSDS_OMM_VERS = 2.0
CREATION_DATE  = 
ORIGINATOR     = 

OBJECT_NAME    = UNKNOWN
OBJECT_ID      = 
CENTER_NAME    = EARTH
REF_FRAME      = TEME
TIME_SYSTEM    = UTC
MEAN_ELEMENT_THEORY = SGP/SGP4

EPOCH          = 2025-12-03T16:50:06.112032
MEAN_MOTION    = 13.51801081
ECCENTRICITY   = .0051393
INCLINATION    = 100.4934
RA_OF_ASC_NODE = 301.4869
ARG_OF_PERICENTER = 269.1055
MEAN_ANOMALY   = 271.8492

EPHEMERIS_TYPE = 0
CLASSIFICATION_TYPE = U
NORAD_CAT_ID   = 87014
ELEMENT_SET_NO = 999
REV_AT_EPOCH   = 58969
BSTAR          = .48726E-2
MEAN_MOTION_DOT = .3167E-4
MEAN_MOTION_DDOT = 0

CCSDS_OMM_VERS = 2.0
CREATION_DATE  = 
ORIGINATOR     = 

OBJECT_NAME    = UNKNOWN
OBJECT_ID      = 
CENTER_NAME    = EARTH
REF_FRAME      = TEME
TIME_SYSTEM    = UTC
MEAN_ELEMENT_THEORY = SGP/SGP4

EPOCH          = 2025-12-02T13:19:40.803168
MEAN_MOTION    = 14.04451333
ECCENTRICITY   = .0081014
INCLINATION    = 98.7581
RA_OF_ASC_NODE = 12.1757
ARG_OF_PERICENTER = 278.7103
MEAN_ANOMALY   = 80.4895

EPHEMERIS_TYPE = 0
CLASSIFICATION_TYPE = U
NORAD_CAT_ID   = 87029
ELEMENT_SET_NO = 999
REV_AT_EPOCH   = 59157
BSTAR          = .77827E-3
MEAN_MOTION_DOT = .1234E-4
MEAN_MOTION_DDOT = 0

CCSDS_OMM_VERS = 2.0
CREATION_DATE  = 
ORIGINATOR     = 

OBJECT_NAME    = UNKNOWN
OBJECT_ID      = 
CENTER_NAME    = EARTH
REF_FRAME      = TEME
TIME_SYSTEM    = UTC
MEAN_ELEMENT_THEORY = SGP/SGP4

EPOCH          = 2025-12-03T20:40:25.845600
MEAN_MOTION    = 14.07086318
ECCENTRICITY   = .0044297
INCLINATION    = 98.7151
RA_OF_ASC_NODE = 21.3949
ARG_OF_PERICENTER = 120.3071
MEAN_ANOMALY   = 240.2492

EPHEMERIS_TYPE = 0
CLASSIFICATION_TYPE = U
NORAD_CAT_ID   = 87042
ELEMENT_SET_NO = 999
REV_AT_EPOCH   = 55271
BSTAR          = .83602E-3
MEAN_MOTION_DOT = .1369E-4
MEAN_MOTION_DDOT = 0

CCSDS_OMM_VERS = 2.0
CREATION_DATE  = 
ORIGINATOR     = 

OBJECT_NAME    = UNKNOWN
OBJECT_ID      = 
CENTER_NAME    = EARTH
REF_FRAME      = TEME
TIME_SYSTEM    = UTC
MEAN_ELEMENT_THEORY = SGP/SGP4

EPOCH          = 2025-12-03T05:47:04.019136
MEAN_MOTION    = 13.45809196
ECCENTRICITY   = .0715599
INCLINATION    = 65.7285
RA_OF_ASC_NODE = 276.9656
ARG_OF_PERICENTER = 145.7618
MEAN_ANOMALY   = 219.1793

EPHEMERIS_TYPE = 0
CLASSIFICATION_TYPE = U
NORAD_CAT_ID   = 87051
ELEMENT_SET_NO = 999
REV_AT_EPOCH   = 58730
BSTAR          = .48221E-3
MEAN_MOTION_DOT = .1335E-4
MEAN_MOTION_DDOT = 0

CCSDS_OMM_VERS = 2.0
CREATION_DATE  = 
ORIGINATOR     = 

OBJECT_NAME    = UNKNOWN
OBJECT_ID      = 
CENTER_NAME    = EARTH
REF_FRAME      = TEME
TIME_SYSTEM    = UTC
MEAN_ELEMENT_THEORY = SGP/SGP4

EPOCH          = 2025-12-04T12:03:56.591712
MEAN_MOTION    = 14.11005251
ECCENTRICITY   = .0013914
INCLINATION    = 100.0928
RA_OF_ASC_NODE = 216.9128
ARG_OF_PERICENTER = 6.9502
MEAN_ANOMALY   = 353.1856

EPHEMERIS_TYPE = 0
CLASSIFICATION_TYPE = U
NORAD_CAT_ID   = 87054
ELEMENT_SET_NO = 999
REV_AT_EPOCH   = 61516
BSTAR          = .23475E-2
MEAN_MOTION_DOT = .417E-4
MEAN_MOTION_DDOT = 0

CCSDS_OMM_VERS = 2.0
CREATION_DATE  = 
ORIGINATOR     = 

OBJECT_NAME    = UNKNOWN
OBJECT_ID      = 
CENTER_NAME    = EARTH
REF_FRAME      = TEME
TIME_SYSTEM    = UTC
MEAN_ELEMENT_THEORY = SGP/SGP4

EPOCH          = 2025-12-03T04:56:51.890496
MEAN_MOTION    = 13.85509364
ECCENTRICITY   = .0479209
INCLINATION    = 61.2208
RA_OF_ASC_NODE = 300.1579
ARG_OF_PERICENTER = 232.7392
MEAN_ANOMALY   = 122.9022

EPHEMERIS_TYPE = 0
CLASSIFICATION_TYPE = U
NORAD_CAT_ID   = 87071
ELEMENT_SET_NO = 999
REV_AT_EPOCH   = 60116
BSTAR          = .19571E-2
MEAN_MOTION_DOT = .5418E-4
MEAN_MOTION_DDOT = 0

CCSDS_OMM_VERS = 2.0
CREATION_DATE  = 
ORIGINATOR     = 

OBJECT_NAME    = UNKNOWN
OBJECT_ID      = 
CENTER_NAME    = EARTH
REF_FRAME      = TEME
TIME_SYSTEM    = UTC
MEAN_ELEMENT_THEORY = SGP/SGP4

EPOCH          = 2025-12-03T04:30:37.938240
MEAN_MOTION    = 12.42810900
ECCENTRICITY   = .0031323
INCLINATION    = 102.2628
RA_OF_ASC_NODE = 68.0410
ARG_OF_PERICENTER = 108.7500
MEAN_ANOMALY   = 251.6967

EPHEMERIS_TYPE = 0
CLASSIFICATION_TYPE = U
NORAD_CAT_ID   = 87129
ELEMENT_SET_NO = 999
REV_AT_EPOCH   = 54548
BSTAR          = .15886E-2
MEAN_MOTION_DOT = .174E-5
MEAN_MOTION_DDOT = 0

CCSDS_OMM_VERS = 2.0
CREATION_DATE  = 
ORIGINATOR     = 

OBJECT_NAME    = UNKNOWN
OBJECT_ID      = 
CENTER_NAME    = EARTH
REF_FRAME      = TEME
TIME_SYSTEM    = UTC
MEAN_ELEMENT_THEORY = SGP/SGP4

EPOCH          = 2025-12-02T12:23:53.961792
MEAN_MOTION    = 13.66020359
ECCENTRICITY   = .0103728
INCLINATION    = 90.3494
RA_OF_ASC_NODE = 69.0344
ARG_OF_PERICENTER = 286.3440
MEAN_ANOMALY   = 72.6334

EPHEMERIS_TYPE = 0
CLASSIFICATION_TYPE = U
NORAD_CAT_ID   = 87159
ELEMENT_SET_NO = 999
REV_AT_EPOCH   = 55529
BSTAR          = .18214E-2
MEAN_MOTION_DOT = .1561E-4
MEAN_MOTION_DDOT = 0

CCSDS_OMM_VERS = 2.0
CREATION_DATE  = 
ORIGINATOR     = 

OBJECT_NAME    = UNKNOWN
OBJECT_ID      = 
CENTER_NAME    = EARTH
REF_FRAME      = TEME
TIME_SYSTEM    = UTC
MEAN_ELEMENT_THEORY = SGP/SGP4

EPOCH          = 2025-12-04T01:25:25.753440
MEAN_MOTION    = 13.63827077
ECCENTRICITY   = .0642265
INCLINATION    = 65.6020
RA_OF_ASC_NODE = 257.7132
ARG_OF_PERICENTER = 68.5187
MEAN_ANOMALY   = 298.3087

EPHEMERIS_TYPE = 0
CLASSIFICATION_TYPE = U
NORAD_CAT_ID   = 87163
ELEMENT_SET_NO = 999
REV_AT_EPOCH   = 57633
BSTAR          = .19713E-2
MEAN_MOTION_DOT = .6505E-4
MEAN_MOTION_DDOT = 0

CCSDS_OMM_VERS = 2.0
CREATION_DATE  = 
ORIGINATOR     = 

OBJECT_NAME    = UNKNOWN
OBJECT_ID      = 
CENTER_NAME    = EARTH
REF_FRAME      = TEME
TIME_SYSTEM    = UTC
MEAN_ELEMENT_THEORY = SGP/SGP4

EPOCH          = 2025-12-04T07:53:33.428832
MEAN_MOTION    = 14.58255198
ECCENTRICITY   = .0097622
INCLINATION    = 65.2043
RA_OF_ASC_NODE = 352.1350
ARG_OF_PERICENTER = 58.3250
MEAN_ANOMALY   = 302.7324

EPHEMERIS_TYPE = 0
CLASSIFICATION_TYPE = U
NORAD_CAT_ID   = 87164
ELEMENT_SET_NO = 999
REV_AT_EPOCH   = 63454
BSTAR          = .2036E-2
MEAN_MOTION_DOT = .9965E-4
MEAN_MOTION_DDOT = 0

