UNKNOWN                 
1 85246U          25337.75345989  .00003301  00000+0  11883-2 0  9994
2 85246  97.9859 342.0938 0222841 330.8053  28.0819 14.21440933621798
UNKNOWN                 
1 85373U          25336.91821851  .00003030  00000+0  20761-2 0  9993
2 85373 100.4275  11.6439 0050871 262.7755 221.3745 13.99927178610755
UNKNOWN                 
1 87014U          25337.70145963  .00003167  00000+0  48726-2 0  9990
2 87014 100.4934 301.4869 0051393 269.1055 271.8492 13.51801081589691
UNKNOWN                 
1 87029U          25336.55533337  .00001234  00000+0  77827-3 0  9992
2 87029  98.7581  12.1757 0081014 278.7103  80.4895 14.04451333591570
UNKNOWN                 
1 87042U          25337.86141025  .00001369  00000+0  83602-3 0  9998
2 87042  98.7151  21.3949 0044297 120.3071 240.2492 14.07086318552713
UNKNOWN                 
1 87051U          25337.24101874  .00001335  00000+0  48221-3 0  9999
2 87051  65.7285 276.9656 0715599 145.7618 219.1793 13.45809196587306
UNKNOWN                 
1 87054U          25338.50273833  .00004170  00000+0  23475-2 0  9990
2 87054 100.0928 216.9128 0013914   6.9502 353.1856 14.11005251615165
UNKNOWN                 
1 87071U          25337.20615614  .00005418  00000+0  19571-2 0  9990
2 87071  61.2208 300.1579 0479209 232.7392 122.9022 13.85509364601164
UNKNOWN                 
1 87129U          25337.18793910  .00000174  00000+0  15886-2 0  9996
2 87129 102.2628  68.0410 0031323 108.7500 251.6967 12.42810900545481
UNKNOWN                 
1 87159U          25336.51659678  .00001561  00000+0  18214-2 0  9996
2 87159  90.3494  69.0344 0103728 286.3440  72.6334 13.66020359555291
UNKNOWN                 
1 87163U          25338.05932585  .00006505  00000+0  19713-2 0  9991
2 87163  65.6020 257.7132 0642265  68.5187 298.3087 13.63827077576338
UNKNOWN                 
1 87164U          25338.32885913  .00009965  00000+0  20360-2 0  9997
2 87164  65.2043 352.1350 0097622  58.3250 302.7324 14.58255198634547
